KINEIS-2D               
1 62930U 25028C   26196.73341331  .00000809  00000+0  12548-3 0  9995
2 62930  97.9272 248.6286 0004756 108.6759 251.4968 14.75770081 76921
KINEIS-2E               
1 62931U 25028D   26196.13534900  .00000691  00000+0  10498-3 0  9997
2 62931  97.8941 247.1727 0002133  94.9534 265.1920 14.77087397 76904
KINEIS-2A               
1 62932U 25028E   26196.14192309  .00000656  00000+0  10893-3 0  9992
2 62932  98.1288 251.5714 0006003  83.9046 276.2845 14.73450638 76721
KINEIS-2B               
1 62934U 25028G   26196.93420480  .00000608  00000+0  10126-3 0  9991
2 62934  97.9655 249.2733 0004820  72.3266 287.8468 14.73452235 76896
KINEIS-4E               
1 63300U 25056A   26196.92917661  .00000703  00000+0  11884-3 0  9999
2 63300  97.9069 320.0315 0002964  84.8852 275.2694 14.72304014 71351
KINEIS-4C               
1 63301U 25056B   26196.94154596  .00000715  00000+0  12077-3 0  9990
2 63301  97.9123 320.2930 0002842 209.0553 151.0497 14.72325814 71366
KINEIS-4D               
1 63302U 25056C   26196.94462740  .00000715  00000+0  12055-3 0  9990
2 63302  97.9041 320.2690 0001486 211.7589 148.3530 14.72391031 71362
KINEIS-4A               
1 63303U 25056D   26196.84410890  .00000693  00000+0  11724-3 0  9996
2 63303  97.9133 320.1237 0002173 153.4410 206.6909 14.72300671 71346
KINEIS-4B               
1 63304U 25056E   26196.89479384  .00000700  00000+0  11836-3 0  9998
2 63304  97.9149 320.2296 0005352 190.4537 169.6561 14.72329569 71342
