{"fetched_at":"2026-07-16T06:43:05.076Z","source":"https://celestrak.org/NORAD/elements/gp.php?NAME=KINEIS&FORMAT=JSON","constellation":"kineis","records":[{"OBJECT_NAME":"KINEIS-2D","OBJECT_ID":"2025-028C","EPOCH":"2026-07-15T17:36:06.909984","CLASSIFICATION_TYPE":"U","MEAN_MOTION":14.75770081,"ECCENTRICITY":0.00047569,"INCLINATION":97.9272,"RA_OF_ASC_NODE":248.6286,"ARG_OF_PERICENTER":108.6759,"MEAN_ANOMALY":251.4968,"EPHEMERIS_TYPE":0,"NORAD_CAT_ID":62930,"ELEMENT_SET_NO":999,"REV_AT_EPOCH":7692,"BSTAR":0.00012547818,"MEAN_MOTION_DOT":0.00000809,"MEAN_MOTION_DDOT":0},{"OBJECT_NAME":"KINEIS-2E","OBJECT_ID":"2025-028D","EPOCH":"2026-07-15T03:14:54.153600","CLASSIFICATION_TYPE":"U","MEAN_MOTION":14.77087397,"ECCENTRICITY":0.00021339,"INCLINATION":97.8941,"RA_OF_ASC_NODE":247.1727,"ARG_OF_PERICENTER":94.9534,"MEAN_ANOMALY":265.192,"EPHEMERIS_TYPE":0,"NORAD_CAT_ID":62931,"ELEMENT_SET_NO":999,"REV_AT_EPOCH":7690,"BSTAR":0.00010498361,"MEAN_MOTION_DOT":0.00000691,"MEAN_MOTION_DDOT":0},{"OBJECT_NAME":"KINEIS-2A","OBJECT_ID":"2025-028E","EPOCH":"2026-07-15T03:24:22.154976","CLASSIFICATION_TYPE":"U","MEAN_MOTION":14.73450638,"ECCENTRICITY":0.00060035,"INCLINATION":98.1288,"RA_OF_ASC_NODE":251.5714,"ARG_OF_PERICENTER":83.9046,"MEAN_ANOMALY":276.2845,"EPHEMERIS_TYPE":0,"NORAD_CAT_ID":62932,"ELEMENT_SET_NO":999,"REV_AT_EPOCH":7672,"BSTAR":0.0001089254,"MEAN_MOTION_DOT":0.00000656,"MEAN_MOTION_DDOT":0},{"OBJECT_NAME":"KINEIS-2B","OBJECT_ID":"2025-028G","EPOCH":"2026-07-15T22:25:15.294720","CLASSIFICATION_TYPE":"U","MEAN_MOTION":14.73452235,"ECCENTRICITY":0.00048207,"INCLINATION":97.9655,"RA_OF_ASC_NODE":249.2733,"ARG_OF_PERICENTER":72.3266,"MEAN_ANOMALY":287.8468,"EPHEMERIS_TYPE":0,"NORAD_CAT_ID":62934,"ELEMENT_SET_NO":999,"REV_AT_EPOCH":7689,"BSTAR":0.00010125868,"MEAN_MOTION_DOT":0.00000608,"MEAN_MOTION_DDOT":0},{"OBJECT_NAME":"KINEIS-4E","OBJECT_ID":"2025-056A","EPOCH":"2026-07-15T22:18:00.859104","CLASSIFICATION_TYPE":"U","MEAN_MOTION":14.72304014,"ECCENTRICITY":0.00029646,"INCLINATION":97.9069,"RA_OF_ASC_NODE":320.0315,"ARG_OF_PERICENTER":84.8852,"MEAN_ANOMALY":275.2694,"EPHEMERIS_TYPE":0,"NORAD_CAT_ID":63300,"ELEMENT_SET_NO":999,"REV_AT_EPOCH":7135,"BSTAR":0.0001188448,"MEAN_MOTION_DOT":0.00000703,"MEAN_MOTION_DDOT":0},{"OBJECT_NAME":"KINEIS-4C","OBJECT_ID":"2025-056B","EPOCH":"2026-07-15T22:35:49.570944","CLASSIFICATION_TYPE":"U","MEAN_MOTION":14.72325814,"ECCENTRICITY":0.00028424,"INCLINATION":97.9123,"RA_OF_ASC_NODE":320.293,"ARG_OF_PERICENTER":209.0553,"MEAN_ANOMALY":151.0497,"EPHEMERIS_TYPE":0,"NORAD_CAT_ID":63301,"ELEMENT_SET_NO":999,"REV_AT_EPOCH":7136,"BSTAR":0.00012077396,"MEAN_MOTION_DOT":0.00000715,"MEAN_MOTION_DDOT":0},{"OBJECT_NAME":"KINEIS-4D","OBJECT_ID":"2025-056C","EPOCH":"2026-07-15T22:40:15.807360","CLASSIFICATION_TYPE":"U","MEAN_MOTION":14.72391031,"ECCENTRICITY":0.00014861,"INCLINATION":97.9041,"RA_OF_ASC_NODE":320.269,"ARG_OF_PERICENTER":211.7589,"MEAN_ANOMALY":148.353,"EPHEMERIS_TYPE":0,"NORAD_CAT_ID":63302,"ELEMENT_SET_NO":999,"REV_AT_EPOCH":7136,"BSTAR":0.00012055209,"MEAN_MOTION_DOT":0.00000715,"MEAN_MOTION_DDOT":0},{"OBJECT_NAME":"KINEIS-4A","OBJECT_ID":"2025-056D","EPOCH":"2026-07-15T20:15:31.008960","CLASSIFICATION_TYPE":"U","MEAN_MOTION":14.72300671,"ECCENTRICITY":0.0002173,"INCLINATION":97.9133,"RA_OF_ASC_NODE":320.1237,"ARG_OF_PERICENTER":153.441,"MEAN_ANOMALY":206.6909,"EPHEMERIS_TYPE":0,"NORAD_CAT_ID":63303,"ELEMENT_SET_NO":999,"REV_AT_EPOCH":7134,"BSTAR":0.00011723909,"MEAN_MOTION_DOT":0.00000693,"MEAN_MOTION_DDOT":0},{"OBJECT_NAME":"KINEIS-4B","OBJECT_ID":"2025-056E","EPOCH":"2026-07-15T21:28:30.187776","CLASSIFICATION_TYPE":"U","MEAN_MOTION":14.72329569,"ECCENTRICITY":0.00053527,"INCLINATION":97.9149,"RA_OF_ASC_NODE":320.2296,"ARG_OF_PERICENTER":190.4537,"MEAN_ANOMALY":169.6561,"EPHEMERIS_TYPE":0,"NORAD_CAT_ID":63304,"ELEMENT_SET_NO":999,"REV_AT_EPOCH":7134,"BSTAR":0.00011836123,"MEAN_MOTION_DOT":0.000007,"MEAN_MOTION_DDOT":0}]}
